{"type":"FeatureCollection","attribution":"Boundary of India as per Survey of India, via DataMeet (CC-BY-SA 2.5 / ODbL)","features":[{"type":"Feature","properties":{"name":"India"},"geometry":{"type":"MultiPolygon","coordinates":[[[[84.769,19.08],[84.755,19.055],[84.728,19.051],[84.725,19.03],[84.743,19.05],[84.743,19.035],[84.598,18.875],[84.557,18.874],[84.583,18.857],[84.554,18.783],[84.446,18.674],[84.411,18.666],[84.441,18.655],[84.357,18.564],[84.348,18.583],[84.273,18.515],[84.348,18.555],[84.342,18.542],[84.137,18.351],[84.061,18.336],[83.993,18.358],[84.059,18.325],[84.119,18.339],[84.118,18.301],[83.954,18.214],[83.927,18.225],[83.933,18.208],[83.869,18.171],[83.661,18.084],[83.668,18.073],[83.583,18.012],[83.556,18.019],[83.554,17.963],[83.475,17.911],[83.446,17.92],[83.453,17.88],[83.404,17.844],[83.416,17.807],[83.356,17.753],[83.34,17.714],[83.241,17.625],[83.216,17.647],[83.198,17.638],[83.231,17.616],[83.219,17.591],[83.147,17.549],[83.103,17.549],[82.991,17.47],[82.623,17.295],[82.446,17.164],[82.306,17.03],[82.27,16.933],[82.253,16.931],[82.249,16.891],[82.316,16.84],[82.352,16.849],[82.363,16.818],[82.366,16.928],[82.337,16.983],[82.368,16.94],[82.375,16.879],[82.35,16.721],[82.32,16.725],[82.343,16.71],[82.34,16.689],[82.368,16.702],[82.324,16.651],[82.332,16.58],[82.313,16.586],[82.328,16.584],[82.322,16.624],[82.308,16.604],[82.29,16.62],[82.298,16.57],[82.263,16.558],[82.313,16.555],[82.249,16.542],[82.149,16.487],[82.2,16.558],[82.18,16.561],[82.143,16.517],[82.141,16.484],[81.968,16.396],[81.965,16.437],[81.945,16.394],[81.726,16.307],[81.725,16.356],[81.709,16.303],[81.661,16.336],[81.573,16.348],[81.58,16.36],[81.55,16.39],[81.554,16.36],[81.529,16.351],[81.403,16.337],[81.391,16.353],[81.409,16.356],[81.409,16.381],[81.368,16.356],[81.313,16.36],[81.303,16.343],[81.321,16.342],[81.246,16.304],[81.266,16.29],[81.241,16.261],[81.267,16.271],[81.212,16.205],[81.185,16.084],[81.148,16.019],[81.153,15.975],[81.109,16.005],[81.084,16.002],[81.141,15.962],[81.045,15.897],[81.01,15.849],[80.996,15.824],[81.007,15.763],[80.94,15.807],[80.989,15.761],[80.937,15.73],[80.863,15.822],[80.917,15.731],[80.839,15.707],[80.804,15.716],[80.805,15.75],[80.82,15.744],[80.808,15.836],[80.756,15.88],[80.498,15.857],[80.521,15.846],[80.36,15.764],[80.277,15.682],[80.222,15.545],[80.175,15.573],[80.135,15.557],[80.186,15.56],[80.213,15.531],[80.184,15.491],[80.21,15.495],[80.103,15.334],[80.081,15.267],[80.084,15.195],[80.03,15.211],[80.074,15.182],[80.046,15.05],[80.093,14.833],[80.075,14.814],[80.132,14.709],[80.121,14.683],[80.145,14.691],[80.184,14.59],[80.093,14.534],[80.195,14.564],[80.173,14.347],[80.146,14.254],[80.124,14.242],[80.137,14.237],[80.13,14.141],[80.144,14.018],[80.169,13.992],[80.248,13.797],[80.241,13.635],[80.319,13.457],[80.311,13.432],[80.281,13.428],[80.325,13.383],[80.329,13.438],[80.346,13.293],[80.26,12.937],[80.254,12.767],[80.164,12.517],[80.162,12.471],[80.131,12.447],[80.138,12.432],[80.019,12.282],[79.888,12.07],[79.784,11.787],[79.79,11.747],[79.767,11.744],[79.786,11.729],[79.759,11.613],[79.763,11.538],[79.825,11.364],[79.799,11.369],[79.812,11.344],[79.84,11.352],[79.854,11.195],[79.852,10.916],[79.836,10.874],[79.849,10.871],[79.85,10.823],[79.836,10.811],[79.85,10.809],[79.879,10.287],[79.795,10.271],[79.729,10.33],[79.704,10.329],[79.715,10.311],[79.638,10.338],[79.612,10.319],[79.723,10.289],[79.748,10.3],[79.776,10.275],[79.545,10.307],[79.556,10.33],[79.615,10.335],[79.533,10.356],[79.538,10.327],[79.519,10.312],[79.396,10.324],[79.299,10.264],[79.229,10.145],[79.227,10.093],[79.263,10.036],[79.167,9.943],[79.121,9.881],[79.12,9.852],[78.988,9.707],[78.925,9.586],[78.915,9.5],[78.895,9.479],[78.93,9.416],[79.052,9.3],[79.188,9.281],[79.082,9.259],[78.966,9.275],[78.905,9.248],[78.857,9.252],[78.725,9.209],[78.721,9.187],[78.658,9.187],[78.651,9.155],[78.575,9.128],[78.528,9.136],[78.422,9.113],[78.275,9.011],[78.213,9.048],[78.216,9.029],[78.245,9.028],[78.268,9.001],[78.213,8.962],[78.172,8.88],[78.165,8.758],[78.198,8.765],[78.199,8.788],[78.206,8.767],[78.141,8.693],[78.126,8.635],[78.142,8.591],[78.124,8.53],[78.133,8.492],[78.067,8.416],[78.067,8.371],[77.977,8.336],[77.885,8.267],[77.814,8.246],[77.734,8.168],[77.589,8.141],[77.563,8.122],[77.553,8.078],[77.31,8.126],[76.983,8.38],[76.672,8.79],[76.603,8.868],[76.55,8.898],[76.507,9.041],[76.343,9.403],[76.243,9.969],[76.202,10.049],[76.098,10.384],[76.043,10.494],[76.058,10.48],[76.04,10.522],[76.069,10.509],[76.066,10.535],[76.041,10.566],[76.033,10.507],[75.902,10.803],[75.852,11.054],[75.81,11.154],[75.823,11.168],[75.801,11.172],[75.7,11.423],[75.621,11.477],[75.531,11.704],[75.388,11.858],[75.36,11.852],[75.321,11.899],[75.309,11.941],[75.351,11.93],[75.319,11.973],[75.288,11.99],[75.296,11.952],[75.236,12.023],[75.204,12.003],[75.09,12.289],[74.98,12.49],[74.828,12.831],[74.771,13.078],[74.782,13.058],[74.79,13.102],[74.767,13.089],[74.703,13.344],[74.725,13.286],[74.725,13.321],[74.695,13.358],[74.688,13.454],[74.7,13.416],[74.743,13.387],[74.739,13.413],[74.705,13.433],[74.722,13.459],[74.751,13.459],[74.732,13.475],[74.705,13.442],[74.695,13.481],[74.689,13.463],[74.664,13.631],[74.681,13.607],[74.686,13.638],[74.709,13.615],[74.724,13.621],[74.704,13.638],[74.76,13.639],[74.702,13.654],[74.707,13.672],[74.68,13.678],[74.713,13.697],[74.668,13.714],[74.666,13.639],[74.607,13.859],[74.626,13.859],[74.598,13.878],[74.572,13.945],[74.516,13.989],[74.506,14.026],[74.524,14.034],[74.501,14.041],[74.433,14.266],[74.527,14.24],[74.469,14.292],[74.444,14.281],[74.426,14.305],[74.426,14.281],[74.403,14.419],[74.385,14.424],[74.357,14.511],[74.378,14.515],[74.387,14.451],[74.408,14.449],[74.422,14.473],[74.441,14.457],[74.436,14.472],[74.401,14.496],[74.368,14.559],[74.341,14.517],[74.309,14.52],[74.295,14.592],[74.384,14.592],[74.43,14.625],[74.364,14.598],[74.285,14.609],[74.272,14.627],[74.286,14.663],[74.246,14.74],[74.228,14.747],[74.2,14.72],[74.167,14.752],[74.177,14.767],[74.157,14.747],[74.144,14.774],[74.095,14.797],[74.12,14.802],[74.126,14.834],[74.162,14.838],[74.157,14.813],[74.176,14.855],[74.25,14.875],[74.179,14.881],[74.121,14.838],[74.097,14.893],[74.042,14.915],[74.046,14.987],[73.984,15.026],[73.984,15.055],[73.914,15.084],[73.916,15.107],[73.958,15.144],[73.959,15.185],[73.947,15.145],[73.879,15.363],[73.843,15.36],[73.784,15.411],[73.922,15.404],[73.941,15.408],[73.926,15.416],[73.936,15.436],[73.898,15.418],[73.848,15.452],[73.786,15.462],[73.807,15.463],[73.834,15.505],[73.767,15.495],[73.73,15.598],[73.767,15.633],[73.734,15.614],[73.725,15.624],[73.691,15.706],[73.7,15.721],[73.659,15.749],[73.689,15.755],[73.666,15.765],[73.633,15.851],[73.59,15.91],[73.508,15.943],[73.488,15.975],[73.487,16.038],[73.459,16.057],[73.472,16.159],[73.461,16.11],[73.386,16.335],[73.391,16.356],[73.421,16.365],[73.382,16.358],[73.372,16.379],[73.47,16.415],[73.37,16.394],[73.314,16.533],[73.346,16.568],[73.324,16.603],[73.355,16.591],[73.343,16.61],[73.368,16.625],[73.379,16.594],[73.403,16.586],[73.385,16.599],[73.392,16.627],[73.37,16.636],[73.344,16.616],[73.324,16.636],[73.345,16.691],[73.323,16.691],[73.312,16.716],[73.318,16.797],[73.293,16.834],[73.293,16.883],[73.315,16.888],[73.282,16.893],[73.295,16.975],[73.329,16.95],[73.334,16.968],[73.273,16.985],[73.282,17.014],[73.261,17.018],[73.258,17.046],[73.28,17.04],[73.312,17.077],[73.271,17.114],[73.277,17.155],[73.239,17.194],[73.249,17.22],[73.22,17.275],[73.19,17.299],[73.232,17.298],[73.246,17.317],[73.224,17.327],[73.206,17.387],[73.169,17.404],[73.204,17.439],[73.189,17.446],[73.183,17.51],[73.141,17.557],[73.16,17.591],[73.117,17.69],[73.138,17.719],[73.093,17.834],[73.13,17.831],[73.092,17.839],[73.08,17.894],[73.056,17.893],[73.034,17.936],[73.007,18.022],[73.047,18.044],[73.018,18.03],[72.992,18.05],[73.002,18.074],[72.971,18.129],[72.986,18.158],[72.976,18.199],[72.932,18.214],[72.933,18.281],[72.963,18.316],[72.913,18.359],[72.926,18.384],[72.892,18.459],[72.904,18.536],[72.933,18.534],[72.862,18.639],[72.865,18.804],[72.808,18.896],[72.822,18.943],[72.788,18.939],[72.82,19.019],[72.827,19.112],[72.807,19.137],[72.784,19.125],[72.781,19.268],[72.8,19.33],[72.755,19.378],[72.749,19.486],[72.71,19.553],[72.721,19.617],[72.695,19.657],[72.714,19.693],[72.676,19.714],[72.67,19.759],[72.723,19.819],[72.659,19.809],[72.643,19.851],[72.644,19.869],[72.673,19.873],[72.65,19.942],[72.684,19.96],[72.708,19.968],[72.724,19.952],[72.754,19.882],[72.774,19.899],[72.76,19.981],[72.72,19.979],[72.725,20.036],[72.704,20.081],[72.738,20.19],[72.769,20.211],[72.745,20.211],[72.738,20.235],[72.76,20.335],[72.825,20.414],[72.822,20.442],[72.873,20.506],[72.886,20.571],[72.783,20.9],[72.783,20.931],[72.846,20.948],[72.807,20.953],[72.771,20.918],[72.756,20.931],[72.722,21.04],[72.755,21.052],[72.694,21.065],[72.721,21.143],[72.667,21.155],[72.659,21.088],[72.632,21.082],[72.618,21.223],[72.653,21.227],[72.61,21.23],[72.605,21.277],[72.587,21.276],[72.596,21.316],[72.638,21.373],[72.649,21.367],[72.623,21.365],[72.625,21.382],[72.697,21.465],[72.645,21.434],[72.674,21.52],[72.742,21.55],[72.645,21.525],[72.608,21.583],[72.629,21.618],[72.701,21.652],[72.787,21.645],[72.835,21.668],[72.78,21.663],[72.736,21.69],[72.538,21.664],[72.518,21.715],[72.54,21.736],[72.557,21.802],[72.617,21.868],[72.629,21.909],[72.608,21.932],[72.637,21.954],[72.589,21.923],[72.58,21.884],[72.518,21.878],[72.505,21.981],[72.548,22.151],[72.592,22.208],[72.647,22.217],[72.754,22.173],[72.809,22.246],[72.878,22.224],[72.91,22.243],[72.916,22.278],[72.889,22.244],[72.865,22.243],[72.844,22.282],[72.752,22.231],[72.688,22.238],[72.635,22.285],[72.541,22.243],[72.543,22.281],[72.486,22.197],[72.474,22.201],[72.493,22.237],[72.478,22.235],[72.493,22.248],[72.471,22.239],[72.435,22.301],[72.389,22.31],[72.412,22.358],[72.394,22.383],[72.362,22.376],[72.404,22.353],[72.372,22.317],[72.414,22.297],[72.417,22.227],[72.4,22.199],[72.377,22.226],[72.38,22.257],[72.356,22.271],[72.371,22.245],[72.362,22.205],[72.392,22.168],[72.376,22.15],[72.358,22.193],[72.343,22.125],[72.294,22.202],[72.324,22.13],[72.271,21.968],[72.278,21.932],[72.242,22.05],[72.287,22.074],[72.298,22.063],[72.3,22.109],[72.277,22.091],[72.265,22.105],[72.278,22.08],[72.233,22.054],[72.233,22.018],[72.186,22.02],[72.172,22.042],[72.2,22.004],[72.231,22.008],[72.221,21.956],[72.191,21.942],[72.147,21.983],[72.161,21.962],[72.147,21.955],[72.19,21.937],[72.22,21.948],[72.253,21.897],[72.265,21.74],[72.247,21.791],[72.183,21.824],[72.241,21.787],[72.306,21.628],[72.269,21.574],[72.235,21.457],[72.122,21.325],[72.109,21.283],[72.093,21.287],[72.081,21.248],[72.112,21.223],[72.114,21.197],[72.018,21.154],[72.008,21.133],[71.99,21.142],[71.977,21.121],[71.899,21.109],[71.802,21.063],[71.807,21.038],[71.715,21.02],[71.565,20.95],[71.515,20.948],[71.516,20.922],[71.438,20.869],[71.378,20.874],[71.385,20.857],[71.209,20.802],[71.156,20.778],[71.155,20.759],[71.086,20.756],[71.065,20.734],[71.011,20.74],[70.987,20.722],[70.991,20.746],[70.922,20.744],[70.875,20.727],[70.853,20.754],[70.874,20.705],[70.822,20.691],[70.439,20.853],[70.417,20.887],[70.321,20.927],[70.1,21.105],[69.778,21.458],[69.805,21.464],[69.775,21.46],[69.614,21.628],[69.591,21.638],[69.588,21.621],[69.591,21.635],[69.217,21.958],[68.957,22.238],[68.936,22.308],[68.985,22.414],[69.067,22.48],[69.085,22.472],[69.044,22.433],[69.069,22.396],[69.194,22.424],[69.204,22.402],[69.158,22.313],[69.233,22.258],[69.32,22.291],[69.334,22.33],[69.419,22.316],[69.488,22.338],[69.524,22.386],[69.498,22.436],[69.551,22.405],[69.562,22.356],[69.591,22.361],[69.576,22.319],[69.582,22.346],[69.609,22.349],[69.607,22.326],[69.618,22.368],[69.655,22.359],[69.664,22.394],[69.699,22.396],[69.698,22.443],[69.672,22.451],[69.703,22.447],[69.728,22.474],[69.745,22.431],[69.76,22.442],[69.798,22.4],[69.835,22.475],[69.836,22.454],[69.86,22.447],[69.9,22.468],[69.914,22.456],[69.913,22.49],[69.938,22.514],[69.957,22.495],[69.946,22.528],[69.976,22.543],[70.023,22.54],[70.039,22.563],[70.086,22.545],[70.163,22.552],[70.243,22.663],[70.253,22.733],[70.303,22.758],[70.354,22.871],[70.423,22.933],[70.493,23.075],[70.438,23.063],[70.401,23.031],[70.383,22.998],[70.387,22.948],[70.348,22.93],[70.238,22.98],[70.227,22.966],[70.199,22.993],[70.225,22.96],[70.162,22.943],[70.12,22.965],[70.141,23.013],[70.112,22.972],[70.127,22.947],[70.091,22.953],[70.1,22.938],[70.139,22.941],[70.132,22.925],[69.802,22.851],[69.752,22.82],[69.705,22.728],[69.662,22.757],[69.667,22.777],[69.659,22.757],[69.643,22.766],[69.634,22.795],[69.641,22.767],[69.616,22.757],[69.58,22.762],[69.555,22.792],[69.446,22.778],[69.356,22.829],[69.191,22.841],[68.653,23.155],[68.631,23.177],[68.682,23.142],[68.585,23.233],[68.599,23.24],[68.601,23.218],[68.631,23.213],[68.64,23.222],[68.619,23.22],[68.604,23.243],[68.64,23.245],[68.672,23.27],[68.641,23.267],[68.63,23.295],[68.695,23.31],[68.659,23.303],[68.668,23.325],[68.652,23.303],[68.606,23.381],[68.602,23.359],[68.581,23.39],[68.568,23.388],[68.58,23.376],[68.558,23.387],[68.56,23.419],[68.536,23.421],[68.516,23.475],[68.523,23.447],[68.502,23.465],[68.502,23.492],[68.519,23.489],[68.492,23.5],[68.484,23.548],[68.497,23.547],[68.497,23.653],[68.539,23.662],[68.52,23.655],[68.525,23.69],[68.633,23.758],[68.666,23.808],[68.743,23.837],[68.722,23.832],[68.761,23.875],[68.66,23.858],[68.637,23.836],[68.604,23.85],[68.525,23.759],[68.515,23.785],[68.537,23.815],[68.526,23.802],[68.515,23.825],[68.547,23.836],[68.573,23.881],[68.663,23.917],[68.62,23.907],[68.622,23.927],[68.596,23.942],[68.588,23.922],[68.559,23.924],[68.537,23.947],[68.545,23.967],[68.753,23.967],[68.762,24.292],[68.806,24.313],[68.828,24.317],[68.851,24.221],[68.868,24.212],[68.903,24.275],[68.943,24.302],[69.005,24.223],[69.092,24.272],[69.193,24.238],[69.309,24.281],[69.484,24.268],[69.588,24.291],[69.73,24.172],[70.016,24.17],[70.066,24.198],[70.109,24.295],[70.372,24.354],[70.574,24.422],[70.6,24.408],[70.56,24.352],[70.576,24.252],[70.711,24.217],[70.879,24.246],[70.907,24.263],[70.878,24.275],[70.874,24.297],[70.949,24.353],[70.988,24.367],[71.037,24.353],[71.115,24.399],[71.124,24.419],[71.109,24.437],[70.997,24.448],[71.005,24.529],[70.988,24.548],[71.011,24.637],[71.098,24.687],[71.063,24.718],[70.936,24.941],[70.886,25.151],[70.758,25.273],[70.735,25.329],[70.665,25.398],[70.679,25.526],[70.658,25.706],[70.609,25.715],[70.528,25.686],[70.391,25.674],[70.276,25.709],[70.099,25.935],[70.086,26.088],[70.147,26.17],[70.174,26.242],[70.173,26.551],[70.064,26.6],[69.879,26.581],[69.804,26.598],[69.711,26.662],[69.506,26.753],[69.484,26.808],[69.514,27.01],[69.584,27.173],[69.872,27.409],[69.941,27.502],[70.025,27.561],[70.135,27.807],[70.374,28.012],[70.497,28.037],[70.592,28.01],[70.677,27.924],[70.687,27.828],[70.745,27.743],[70.883,27.708],[71.273,27.85],[71.41,27.873],[71.659,27.876],[71.899,27.963],[71.935,28.133],[71.999,28.214],[72.129,28.309],[72.205,28.39],[72.302,28.673],[72.389,28.769],[72.716,28.939],[72.947,29.03],[72.999,29.143],[73.096,29.252],[73.279,29.56],[73.4,29.941],[73.62,30.025],[73.796,30.068],[73.967,30.187],[73.968,30.263],[73.885,30.363],[73.972,30.434],[73.931,30.439],[73.935,30.489],[73.959,30.459],[73.989,30.51],[74.02,30.513],[74.013,30.532],[74.078,30.527],[74.102,30.614],[74.12,30.607],[74.129,30.634],[74.199,30.669],[74.233,30.723],[74.287,30.735],[74.264,30.772],[74.309,30.784],[74.297,30.801],[74.327,30.849],[74.385,30.863],[74.364,30.879],[74.372,30.895],[74.427,30.912],[74.413,30.927],[74.469,30.96],[74.46,30.97],[74.507,30.966],[74.548,30.993],[74.566,31.054],[74.606,31.041],[74.695,31.073],[74.707,31.099],[74.689,31.132],[74.607,31.136],[74.609,31.092],[74.578,31.085],[74.558,31.089],[74.554,31.124],[74.517,31.14],[74.535,31.249],[74.524,31.274],[74.545,31.304],[74.53,31.316],[74.603,31.423],[74.652,31.417],[74.655,31.463],[74.639,31.488],[74.579,31.502],[74.617,31.535],[74.619,31.571],[74.558,31.612],[74.536,31.681],[74.486,31.722],[74.565,31.755],[74.569,31.83],[74.613,31.887],[74.64,31.885],[74.674,31.92],[74.723,31.921],[74.721,31.937],[74.76,31.953],[74.823,31.957],[74.833,31.999],[74.879,32.025],[74.877,32.047],[74.929,32.067],[75.013,32.035],[75.107,32.06],[75.131,32.084],[75.179,32.069],[75.21,32.117],[75.24,32.091],[75.265,32.1],[75.322,32.175],[75.328,32.214],[75.378,32.235],[75.382,32.269],[75.327,32.297],[75.34,32.342],[75.305,32.338],[75.287,32.366],[75.259,32.365],[75.255,32.385],[75.2,32.391],[75.19,32.42],[75.132,32.403],[75.137,32.425],[75.106,32.474],[75.09,32.464],[75.031,32.493],[75.005,32.452],[74.95,32.441],[74.936,32.463],[74.896,32.461],[74.877,32.483],[74.817,32.489],[74.794,32.469],[74.685,32.482],[74.689,32.525],[74.663,32.536],[74.668,32.559],[74.652,32.559],[74.635,32.603],[74.693,32.655],[74.65,32.698],[74.701,32.835],[74.636,32.813],[74.654,32.781],[74.632,32.774],[74.631,32.747],[74.557,32.757],[74.509,32.739],[74.455,32.784],[74.406,32.783],[74.371,32.759],[74.309,32.793],[74.302,32.823],[74.217,32.845],[74.178,32.883],[74.06,32.909],[74.049,32.932],[73.988,32.936],[73.997,32.96],[73.958,32.987],[73.83,33.007],[73.786,32.966],[73.789,32.998],[73.735,33.067],[73.628,33.09],[73.626,33.14],[73.656,33.169],[73.658,33.208],[73.641,33.227],[73.629,33.216],[73.606,33.252],[73.591,33.337],[73.566,33.343],[73.559,33.368],[73.588,33.444],[73.625,33.458],[73.597,33.5],[73.633,33.534],[73.604,33.608],[73.561,33.621],[73.563,33.676],[73.598,33.716],[73.591,33.754],[73.558,33.784],[73.59,33.884],[73.516,34.001],[73.489,34.145],[73.493,34.22],[73.47,34.252],[73.479,34.291],[73.454,34.278],[73.425,34.353],[73.391,34.377],[73.42,34.418],[73.448,34.574],[73.523,34.575],[73.557,34.593],[73.651,34.568],[73.696,34.654],[73.667,34.666],[73.667,34.685],[73.75,34.787],[73.821,34.796],[73.85,34.818],[73.918,34.814],[73.974,34.865],[74.03,34.878],[74.044,34.922],[74.074,34.94],[74.061,34.994],[74.108,35.02],[74.066,35.049],[74.093,35.097],[74.135,35.11],[74.111,35.13],[74.114,35.152],[74.039,35.147],[74.0,35.184],[73.959,35.174],[73.917,35.212],[73.865,35.211],[73.812,35.242],[73.716,35.226],[73.727,35.278],[73.7,35.358],[73.739,35.428],[73.795,35.46],[73.785,35.526],[73.635,35.572],[73.571,35.555],[73.482,35.577],[73.407,35.564],[73.367,35.605],[73.273,35.63],[73.136,35.719],[73.154,35.842],[73.1,35.878],[73.078,35.886],[73.038,35.855],[72.929,35.846],[72.905,35.854],[72.902,35.882],[72.83,35.887],[72.777,35.844],[72.738,35.859],[72.691,35.833],[72.534,35.917],[72.531,35.953],[72.596,36.027],[72.586,36.05],[72.531,36.075],[72.537,36.115],[72.574,36.151],[72.552,36.181],[72.56,36.212],[72.595,36.262],[72.637,36.276],[72.694,36.25],[72.692,36.276],[72.779,36.31],[72.883,36.387],[72.879,36.443],[72.922,36.463],[72.992,36.458],[72.996,36.515],[73.062,36.538],[73.112,36.61],[73.092,36.635],[73.085,36.7],[73.126,36.687],[73.189,36.722],[73.215,36.7],[73.315,36.706],[73.442,36.745],[73.544,36.709],[73.6,36.72],[73.633,36.69],[73.701,36.685],[73.725,36.71],[73.783,36.702],[73.809,36.717],[73.884,36.699],[73.902,36.707],[73.9,36.75],[73.864,36.788],[73.724,36.834],[73.681,36.886],[73.69,36.912],[73.818,36.886],[73.879,36.894],[74.056,36.806],[74.093,36.839],[74.143,36.84],[74.169,36.903],[74.261,36.887],[74.43,36.99],[74.532,36.987],[74.579,36.949],[74.582,37.043],[74.694,37.078],[74.713,37.074],[74.75,37.012],[74.779,37.03],[74.84,37.022],[74.846,36.99],[74.922,36.906],[75.019,36.976],[75.096,36.943],[75.151,36.967],[75.209,37.037],[75.333,37.055],[75.355,36.978],[75.426,36.956],[75.414,36.892],[75.444,36.887],[75.474,36.811],[75.616,36.762],[75.769,36.573],[75.923,36.502],[76.077,36.474],[76.173,36.39],[76.255,36.348],[76.352,36.36],[76.432,36.308],[76.45,36.269],[76.433,36.251],[76.563,36.173],[76.601,36.166],[76.644,36.184],[76.704,36.129],[76.72,36.083],[76.802,36.048],[76.808,36.019],[76.77,36.009],[76.723,35.953],[76.812,35.845],[76.935,35.784],[77.021,35.775],[77.116,35.798],[77.164,35.767],[77.167,35.735],[77.221,35.728],[77.228,35.712],[77.278,35.72],[77.315,35.699],[77.328,35.719],[77.358,35.718],[77.402,35.663],[77.431,35.655],[77.427,35.611],[77.457,35.594],[77.461,35.548],[77.487,35.532],[77.435,35.517],[77.378,35.55],[77.322,35.537],[77.382,35.477],[77.445,35.461],[77.512,35.489],[77.614,35.47],[77.645,35.489],[77.672,35.471],[77.723,35.476],[77.734,35.525],[77.773,35.495],[77.818,35.513],[77.901,35.468],[77.922,35.494],[77.983,35.456],[77.965,35.496],[77.931,35.516],[77.967,35.572],[77.952,35.607],[77.991,35.582],[78.042,35.587],[78.078,35.549],[78.137,35.539],[78.157,35.552],[78.162,35.629],[78.186,35.624],[78.2,35.669],[78.255,35.646],[78.273,35.722],[78.386,35.736],[78.423,35.785],[78.521,35.764],[78.665,35.857],[78.769,35.87],[78.824,35.856],[78.961,35.893],[79.022,35.849],[79.133,35.836],[79.194,35.887],[79.19,35.947],[79.215,35.979],[79.378,35.995],[79.422,35.897],[79.518,35.884],[79.738,35.802],[79.871,35.783],[79.93,35.827],[79.999,35.838],[80.108,35.681],[80.292,35.607],[80.328,35.47],[80.281,35.441],[80.271,35.344],[80.226,35.22],[80.184,35.167],[80.175,35.002],[80.073,34.828],[80.069,34.715],[79.945,34.681],[79.861,34.689],[79.776,34.628],[79.793,34.59],[79.758,34.555],[79.81,34.531],[79.815,34.5],[79.794,34.485],[79.662,34.48],[79.593,34.501],[79.509,34.474],[79.528,34.418],[79.561,34.41],[79.56,34.332],[79.592,34.283],[79.586,34.244],[79.544,34.207],[79.507,34.206],[79.495,34.136],[79.42,34.078],[79.414,34.055],[79.438,34.029],[79.427,34.017],[79.198,34.051],[79.171,34.073],[79.113,34.02],[79.022,34.051],[78.952,34.029],[78.906,33.976],[79.017,33.779],[79.047,33.766],[79.06,33.78],[79.068,33.756],[79.043,33.75],[79.021,33.706],[79.054,33.678],[79.091,33.687],[79.107,33.617],[79.048,33.628],[78.99,33.611],[78.917,33.632],[78.915,33.574],[78.943,33.509],[78.933,33.433],[78.954,33.381],[78.99,33.333],[79.097,33.295],[79.241,33.298],[79.453,33.26],[79.447,33.206],[79.377,33.085],[79.394,33.036],[79.332,33.012],[79.384,32.989],[79.386,32.968],[79.422,32.962],[79.627,32.738],[79.47,32.576],[79.448,32.533],[79.407,32.53],[79.395,32.572],[79.321,32.593],[79.238,32.506],[79.137,32.477],[79.144,32.423],[79.115,32.384],[79.034,32.386],[78.985,32.338],[78.859,32.441],[78.827,32.439],[78.777,32.558],[78.797,32.598],[78.763,32.655],[78.769,32.697],[78.723,32.661],[78.662,32.654],[78.621,32.597],[78.573,32.618],[78.46,32.58],[78.428,32.532],[78.4,32.526],[78.463,32.494],[78.456,32.453],[78.536,32.415],[78.481,32.348],[78.483,32.28],[78.456,32.242],[78.557,32.246],[78.61,32.215],[78.591,32.154],[78.614,32.118],[78.665,32.103],[78.748,32.003],[78.788,31.995],[78.746,31.902],[78.738,31.833],[78.708,31.789],[78.741,31.759],[78.728,31.737],[78.75,31.687],[78.796,31.685],[78.803,31.653],[78.847,31.61],[78.722,31.514],[78.732,31.48],[78.765,31.486],[78.811,31.448],[78.792,31.396],[78.85,31.367],[78.845,31.325],[78.895,31.266],[78.93,31.256],[78.941,31.327],[79.005,31.357],[79.064,31.465],[79.145,31.434],[79.264,31.291],[79.249,31.249],[79.288,31.225],[79.315,31.144],[79.397,31.113],[79.428,31.032],[79.517,31.034],[79.535,30.99],[79.553,30.986],[79.548,30.968],[79.605,30.937],[79.667,30.979],[79.729,30.98],[79.753,31.001],[79.82,30.972],[79.867,30.975],[79.93,30.887],[80.059,30.838],[80.118,30.774],[80.172,30.807],[80.205,30.758],[80.239,30.759],[80.252,30.732],[80.235,30.692],[80.195,30.664],[80.224,30.639],[80.213,30.617],[80.23,30.573],[80.32,30.562],[80.383,30.521],[80.415,30.526],[80.541,30.449],[80.599,30.482],[80.752,30.393],[80.826,30.314],[81.034,30.247],[81.043,30.199],[80.937,30.177],[80.903,30.216],[80.868,30.172],[80.875,30.131],[80.769,30.055],[80.744,30.002],[80.682,29.961],[80.6,29.954],[80.573,29.923],[80.561,29.862],[80.496,29.796],[80.438,29.805],[80.374,29.749],[80.395,29.669],[80.424,29.641],[80.414,29.598],[80.351,29.551],[80.353,29.517],[80.303,29.486],[80.303,29.45],[80.246,29.441],[80.285,29.344],[80.317,29.323],[80.302,29.198],[80.254,29.219],[80.274,29.144],[80.24,29.119],[80.185,29.132],[80.149,29.1],[80.13,29.035],[80.141,29.006],[80.103,28.981],[80.067,28.919],[80.07,28.829],[80.133,28.822],[80.211,28.76],[80.262,28.753],[80.262,28.725],[80.323,28.697],[80.369,28.635],[80.438,28.637],[80.515,28.56],[80.533,28.569],[80.509,28.666],[80.566,28.689],[80.591,28.679],[80.594,28.646],[80.669,28.64],[80.703,28.575],[80.771,28.565],[80.787,28.525],[80.845,28.497],[80.909,28.495],[80.906,28.459],[80.942,28.466],[80.939,28.451],[80.978,28.451],[80.972,28.435],[81.014,28.448],[81.04,28.43],[81.022,28.413],[81.037,28.4],[81.044,28.412],[81.103,28.378],[81.215,28.358],[81.24,28.281],[81.32,28.202],[81.327,28.171],[81.307,28.164],[81.329,28.157],[81.32,28.135],[81.379,28.145],[81.381,28.173],[81.429,28.171],[81.484,28.114],[81.482,28.081],[81.633,28.003],[81.7,27.989],[81.891,27.858],[81.928,27.859],[81.971,27.929],[82.074,27.924],[82.126,27.866],[82.207,27.846],[82.459,27.676],[82.714,27.728],[82.716,27.662],[82.755,27.583],[82.742,27.501],[82.926,27.5],[82.95,27.472],[83.023,27.453],[83.184,27.453],[83.312,27.329],[83.358,27.34],[83.391,27.373],[83.402,27.478],[83.614,27.469],[83.867,27.345],[83.886,27.376],[83.837,27.422],[83.851,27.446],[84.03,27.436],[84.063,27.454],[84.106,27.519],[84.154,27.519],[84.155,27.487],[84.211,27.467],[84.218,27.44],[84.255,27.45],[84.294,27.385],[84.626,27.337],[84.691,27.223],[84.678,27.103],[84.646,27.047],[84.763,27.0],[84.778,27.018],[84.797,26.997],[84.829,27.021],[84.901,26.973],[84.962,26.963],[84.981,26.941],[84.971,26.92],[85.059,26.885],[85.033,26.874],[85.034,26.853],[85.196,26.869],[85.18,26.809],[85.213,26.758],[85.337,26.741],[85.409,26.791],[85.459,26.782],[85.576,26.86],[85.588,26.848],[85.637,26.872],[85.643,26.853],[85.726,26.817],[85.737,26.65],[85.818,26.603],[85.852,26.608],[85.852,26.568],[85.944,26.616],[85.96,26.652],[86.03,26.666],[86.139,26.629],[86.141,26.604],[86.195,26.615],[86.222,26.59],[86.256,26.613],[86.346,26.617],[86.501,26.542],[86.538,26.541],[86.573,26.498],[86.735,26.424],[86.773,26.458],[86.843,26.44],[86.897,26.462],[86.896,26.487],[87.016,26.534],[87.046,26.587],[87.072,26.586],[87.092,26.452],[87.158,26.406],[87.262,26.411],[87.267,26.374],[87.314,26.372],[87.341,26.348],[87.37,26.407],[87.463,26.44],[87.55,26.419],[87.609,26.381],[87.653,26.393],[87.679,26.436],[87.767,26.409],[87.789,26.468],[87.851,26.436],[87.891,26.486],[87.929,26.419],[87.993,26.393],[87.996,26.367],[88.02,26.353],[88.098,26.434],[88.107,26.555],[88.133,26.574],[88.189,26.729],[88.176,26.861],[88.144,26.889],[88.144,26.928],[88.123,26.947],[88.135,26.986],[88.093,27.007],[88.084,27.036],[88.046,27.038],[87.991,27.112],[88.065,27.338],[88.044,27.383],[88.071,27.443],[88.047,27.493],[88.084,27.587],[88.151,27.669],[88.158,27.73],[88.199,27.788],[88.177,27.819],[88.202,27.85],[88.134,27.873],[88.122,27.917],[88.143,27.962],[88.197,27.943],[88.218,27.967],[88.253,27.948],[88.346,27.988],[88.398,27.978],[88.492,28.045],[88.547,28.039],[88.563,28.085],[88.625,28.103],[88.615,28.126],[88.63,28.131],[88.675,28.074],[88.76,28.073],[88.841,28.011],[88.844,27.932],[88.869,27.923],[88.894,27.859],[88.862,27.816],[88.87,27.739],[88.846,27.71],[88.854,27.669],[88.818,27.642],[88.813,27.603],[88.775,27.565],[88.796,27.526],[88.791,27.455],[88.817,27.405],[88.847,27.378],[88.866,27.386],[88.897,27.336],[88.929,27.326],[88.906,27.275],[88.808,27.247],[88.795,27.186],[88.768,27.175],[88.758,27.143],[88.877,27.109],[88.882,26.951],[88.926,26.996],[88.96,26.968],[88.946,26.942],[88.969,26.924],[89.031,26.94],[89.053,26.904],[89.097,26.894],[89.108,26.836],[89.137,26.808],[89.262,26.817],[89.383,26.866],[89.397,26.841],[89.455,26.834],[89.465,26.806],[89.565,26.815],[89.627,26.777],[89.65,26.781],[89.66,26.763],[89.62,26.726],[89.762,26.736],[89.781,26.699],[89.813,26.715],[89.86,26.703],[89.868,26.737],[89.963,26.723],[90.133,26.749],[90.194,26.77],[90.189,26.81],[90.22,26.854],[90.307,26.848],[90.36,26.896],[90.415,26.902],[90.565,26.801],[90.717,26.767],[91.058,26.779],[91.101,26.819],[91.266,26.804],[91.34,26.779],[91.412,26.835],[91.497,26.789],[91.628,26.82],[91.691,26.804],[91.806,26.851],[91.857,26.911],[91.887,26.915],[91.989,26.857],[92.059,26.847],[92.101,26.867],[92.121,26.959],[92.107,27.007],[92.037,27.064],[92.027,27.161],[92.074,27.223],[92.044,27.266],[92.106,27.268],[92.125,27.287],[92.063,27.326],[92.059,27.399],[92.024,27.447],[92.023,27.479],[91.944,27.46],[91.868,27.481],[91.725,27.47],[91.695,27.502],[91.652,27.484],[91.572,27.575],[91.581,27.608],[91.563,27.633],[91.629,27.706],[91.645,27.765],[91.634,27.8],[91.604,27.82],[91.571,27.815],[91.549,27.855],[91.667,27.858],[91.715,27.813],[91.829,27.81],[91.866,27.736],[91.924,27.715],[91.989,27.769],[92.06,27.758],[92.215,27.858],[92.269,27.857],[92.321,27.777],[92.385,27.794],[92.388,27.815],[92.412,27.821],[92.46,27.802],[92.506,27.841],[92.565,27.82],[92.61,27.877],[92.674,27.899],[92.744,27.988],[92.7,28.048],[92.668,28.062],[92.692,28.125],[92.805,28.201],[92.833,28.171],[92.97,28.261],[93.005,28.23],[93.039,28.262],[93.027,28.299],[93.224,28.333],[93.237,28.4],[93.188,28.439],[93.281,28.504],[93.311,28.566],[93.305,28.599],[93.333,28.608],[93.342,28.64],[93.451,28.675],[93.48,28.653],[93.497,28.683],[93.539,28.658],[93.625,28.657],[93.737,28.688],[93.78,28.668],[93.849,28.706],[93.931,28.671],[93.974,28.75],[94.007,28.775],[93.991,28.797],[94.0,28.841],[94.161,28.954],[94.22,29.084],[94.294,29.148],[94.363,29.152],[94.378,29.19],[94.437,29.226],[94.564,29.228],[94.634,29.348],[94.717,29.304],[94.783,29.24],[94.803,29.164],[94.877,29.183],[95.028,29.129],[95.003,29.172],[95.104,29.142],[95.127,29.115],[95.256,29.108],[95.272,29.048],[95.307,29.061],[95.452,29.034],[95.49,29.074],[95.501,29.138],[95.551,29.127],[95.543,29.212],[95.591,29.216],[95.604,29.26],[95.643,29.248],[95.732,29.301],[95.783,29.355],[95.802,29.334],[95.886,29.39],[95.962,29.381],[96.061,29.456],[96.092,29.46],[96.18,29.362],[96.188,29.307],[96.248,29.232],[96.297,29.233],[96.368,29.283],[96.397,29.253],[96.35,29.168],[96.264,29.157],[96.19,29.091],[96.119,29.074],[96.154,29.05],[96.189,28.985],[96.149,28.934],[96.17,28.902],[96.252,28.939],[96.35,29.029],[96.439,29.034],[96.529,29.075],[96.481,28.99],[96.491,28.961],[96.522,28.967],[96.541,28.88],[96.619,28.774],[96.589,28.717],[96.475,28.683],[96.497,28.633],[96.431,28.582],[96.403,28.589],[96.409,28.559],[96.357,28.556],[96.328,28.529],[96.375,28.482],[96.266,28.408],[96.322,28.381],[96.373,28.389],[96.401,28.339],[96.425,28.345],[96.46,28.414],[96.512,28.413],[96.582,28.457],[96.666,28.46],[96.753,28.415],[96.776,28.368],[96.854,28.362],[96.9,28.379],[96.927,28.338],[96.998,28.309],[97.094,28.362],[97.153,28.327],[97.175,28.291],[97.283,28.268],[97.401,28.192],[97.364,28.188],[97.331,28.154],[97.339,28.111],[97.308,28.068],[97.374,28.061],[97.377,28.03],[97.415,28.015],[97.378,27.977],[97.389,27.887],[97.321,27.88],[97.309,27.921],[97.256,27.9],[97.102,27.784],[97.096,27.741],[97.028,27.74],[96.991,27.662],[96.949,27.663],[96.897,27.612],[96.937,27.521],[96.911,27.453],[96.965,27.406],[97.002,27.32],[97.166,27.145],[97.145,27.092],[97.107,27.111],[97.061,27.101],[96.983,27.156],[96.875,27.184],[96.862,27.209],[96.889,27.227],[96.884,27.258],[96.861,27.263],[96.802,27.345],[96.712,27.372],[96.699,27.357],[96.612,27.361],[96.522,27.285],[96.47,27.304],[96.234,27.277],[96.036,27.189],[95.936,27.045],[95.877,27.013],[95.808,27.013],[95.76,26.957],[95.758,26.908],[95.73,26.88],[95.673,26.903],[95.636,26.872],[95.611,26.814],[95.532,26.824],[95.428,26.693],[95.302,26.649],[95.244,26.687],[95.154,26.613],[95.154,26.574],[95.114,26.542],[95.12,26.523],[95.066,26.444],[95.086,26.446],[95.104,26.395],[95.135,26.381],[95.12,26.232],[95.142,26.207],[95.117,26.162],[95.119,26.103],[95.184,26.073],[95.105,25.961],[95.035,25.928],[95.021,25.903],[95.014,25.865],[95.05,25.798],[95.051,25.755],[94.936,25.662],[94.918,25.604],[94.887,25.586],[94.903,25.56],[94.851,25.556],[94.811,25.489],[94.687,25.459],[94.672,25.41],[94.643,25.395],[94.584,25.209],[94.744,25.13],[94.74,25.018],[94.701,24.971],[94.717,24.935],[94.636,24.835],[94.631,24.758],[94.608,24.715],[94.549,24.71],[94.529,24.626],[94.463,24.569],[94.427,24.487],[94.401,24.481],[94.401,24.415],[94.363,24.393],[94.381,24.373],[94.349,24.336],[94.324,24.333],[94.325,24.286],[94.281,24.174],[94.26,24.162],[94.257,24.083],[94.244,24.056],[94.23,24.061],[94.243,24.038],[94.192,23.959],[94.193,23.932],[94.168,23.929],[94.159,23.847],[94.12,23.837],[94.093,23.888],[93.951,23.945],[93.905,23.952],[93.814,23.925],[93.755,24.005],[93.619,24.01],[93.601,23.965],[93.562,23.985],[93.553,23.961],[93.507,23.945],[93.467,23.97],[93.423,24.068],[93.345,24.109],[93.333,23.983],[93.397,23.926],[93.403,23.758],[93.443,23.678],[93.395,23.429],[93.412,23.384],[93.364,23.351],[93.392,23.22],[93.372,23.146],[93.391,23.135],[93.295,23.002],[93.251,23.003],[93.192,23.057],[93.131,23.044],[93.127,22.998],[93.166,22.916],[93.136,22.91],[93.114,22.813],[93.097,22.807],[93.11,22.741],[93.093,22.708],[93.143,22.583],[93.109,22.529],[93.131,22.517],[93.139,22.46],[93.188,22.424],[93.206,22.258],[93.144,22.238],[93.167,22.197],[93.152,22.175],[93.079,22.206],[93.044,22.195],[93.063,22.099],[93.013,22.103],[92.997,22.048],[93.007,21.982],[92.99,21.979],[92.953,22.028],[92.932,22.018],[92.908,21.944],[92.865,22.063],[92.847,22.06],[92.716,22.151],[92.697,22.147],[92.691,22.076],[92.682,22.104],[92.682,22.016],[92.61,21.979],[92.601,22.062],[92.565,22.128],[92.584,22.144],[92.609,22.127],[92.614,22.169],[92.58,22.279],[92.521,22.701],[92.51,22.735],[92.481,22.751],[92.449,22.893],[92.375,22.934],[92.397,23.055],[92.367,23.105],[92.357,23.234],[92.405,23.242],[92.373,23.329],[92.385,23.36],[92.348,23.435],[92.333,23.43],[92.302,23.624],[92.28,23.638],[92.296,23.687],[92.282,23.715],[92.249,23.718],[92.224,23.653],[92.208,23.705],[92.181,23.708],[92.177,23.738],[92.155,23.734],[92.081,23.649],[92.052,23.646],[92.012,23.663],[91.984,23.731],[91.956,23.728],[91.962,23.698],[91.941,23.688],[91.94,23.664],[91.979,23.482],[91.947,23.471],[91.942,23.436],[91.893,23.434],[91.843,23.397],[91.778,23.276],[91.819,23.103],[91.835,23.096],[91.811,23.069],[91.779,23.07],[91.781,23.033],[91.727,22.994],[91.66,22.98],[91.622,22.944],[91.546,22.998],[91.552,23.039],[91.537,23.04],[91.534,23.09],[91.508,23.127],[91.518,23.144],[91.494,23.156],[91.508,23.186],[91.477,23.194],[91.485,23.214],[91.458,23.22],[91.471,23.233],[91.457,23.258],[91.425,23.261],[91.416,23.282],[91.384,23.195],[91.422,23.071],[91.371,23.075],[91.328,23.164],[91.329,23.253],[91.303,23.293],[91.318,23.309],[91.295,23.32],[91.317,23.36],[91.3,23.35],[91.25,23.49],[91.208,23.514],[91.213,23.55],[91.163,23.601],[91.162,23.663],[91.203,23.645],[91.208,23.682],[91.158,23.689],[91.155,23.729],[91.167,23.749],[91.228,23.745],[91.254,23.838],[91.238,23.925],[91.277,23.928],[91.27,23.958],[91.307,23.99],[91.385,23.976],[91.404,24.054],[91.382,24.105],[91.602,24.078],[91.603,24.095],[91.642,24.109],[91.664,24.189],[91.654,24.219],[91.671,24.233],[91.695,24.167],[91.761,24.139],[91.75,24.245],[91.822,24.214],[91.848,24.225],[91.85,24.199],[91.907,24.137],[91.944,24.258],[91.928,24.339],[91.962,24.358],[91.999,24.328],[91.98,24.386],[92.095,24.374],[92.124,24.382],[92.139,24.422],[92.172,24.422],[92.156,24.52],[92.233,24.502],[92.222,24.605],[92.24,24.644],[92.226,24.68],[92.266,24.712],[92.266,24.774],[92.283,24.787],[92.272,24.829],[92.247,24.833],[92.237,24.861],[92.253,24.881],[92.244,24.904],[92.308,24.916],[92.396,24.855],[92.457,24.876],[92.498,24.868],[92.489,24.942],[92.455,24.942],[92.466,24.963],[92.42,24.98],[92.438,25.032],[92.352,25.048],[92.336,25.082],[92.3,25.071],[92.232,25.097],[92.212,25.111],[92.222,25.121],[92.191,25.135],[92.179,25.123],[92.065,25.187],[91.986,25.171],[91.75,25.171],[91.747,25.148],[91.708,25.156],[91.645,25.124],[91.604,25.146],[91.606,25.173],[91.48,25.135],[91.417,25.172],[91.341,25.173],[91.268,25.206],[91.084,25.201],[90.872,25.159],[90.783,25.183],[90.735,25.154],[90.678,25.167],[90.658,25.193],[90.639,25.173],[90.513,25.168],[90.447,25.143],[90.335,25.191],[90.115,25.224],[89.975,25.3],[89.838,25.295],[89.819,25.388],[89.857,25.468],[89.856,25.538],[89.883,25.621],[89.848,25.69],[89.856,25.715],[89.83,25.729],[89.843,25.761],[89.819,25.817],[89.887,25.942],[89.831,25.947],[89.845,25.972],[89.872,25.976],[89.835,26.007],[89.835,25.986],[89.819,25.989],[89.813,26.038],[89.792,26.017],[89.803,26.04],[89.779,26.035],[89.801,26.059],[89.797,26.088],[89.765,26.113],[89.748,26.157],[89.689,26.168],[89.699,26.178],[89.677,26.202],[89.696,26.222],[89.646,26.229],[89.652,26.196],[89.635,26.192],[89.66,26.183],[89.656,26.169],[89.625,26.182],[89.597,26.161],[89.608,26.121],[89.631,26.124],[89.598,26.101],[89.613,26.089],[89.632,26.107],[89.653,26.068],[89.607,26.066],[89.615,26.049],[89.583,26.026],[89.581,25.968],[89.548,25.971],[89.542,26.008],[89.477,25.996],[89.432,26.015],[89.426,26.043],[89.393,26.009],[89.358,26.011],[89.263,26.066],[89.268,26.093],[89.224,26.126],[89.161,26.14],[89.141,26.185],[89.148,26.222],[89.106,26.29],[89.107,26.306],[89.124,26.292],[89.137,26.317],[89.089,26.322],[89.102,26.341],[89.085,26.364],[89.091,26.4],[89.039,26.395],[89.009,26.42],[88.981,26.407],[88.988,26.444],[88.968,26.459],[88.915,26.405],[88.921,26.363],[88.96,26.363],[88.959,26.333],[88.991,26.346],[88.998,26.299],[89.018,26.292],[89.026,26.309],[89.03,26.287],[89.051,26.281],[89.057,26.296],[89.05,26.241],[88.972,26.241],[88.907,26.288],[88.871,26.276],[88.885,26.237],[88.848,26.233],[88.821,26.26],[88.823,26.296],[88.801,26.309],[88.757,26.31],[88.676,26.265],[88.674,26.292],[88.706,26.29],[88.68,26.32],[88.732,26.315],[88.752,26.329],[88.747,26.353],[88.706,26.337],[88.693,26.374],[88.705,26.389],[88.633,26.435],[88.626,26.47],[88.573,26.458],[88.484,26.542],[88.437,26.547],[88.424,26.622],[88.403,26.625],[88.342,26.473],[88.36,26.448],[88.368,26.485],[88.487,26.46],[88.528,26.357],[88.488,26.351],[88.464,26.373],[88.442,26.338],[88.417,26.332],[88.422,26.317],[88.363,26.292],[88.354,26.222],[88.253,26.193],[88.183,26.147],[88.162,26.102],[88.186,26.067],[88.182,26.025],[88.144,26.013],[88.126,25.943],[88.095,25.917],[88.099,25.872],[88.119,25.855],[88.105,25.843],[88.114,25.796],[88.144,25.791],[88.15,25.773],[88.185,25.794],[88.211,25.786],[88.275,25.806],[88.272,25.779],[88.321,25.736],[88.376,25.714],[88.418,25.664],[88.456,25.663],[88.45,25.601],[88.498,25.581],[88.543,25.51],[88.607,25.515],[88.651,25.481],[88.701,25.473],[88.711,25.496],[88.749,25.489],[88.769,25.497],[88.763,25.521],[88.802,25.522],[88.836,25.48],[88.837,25.428],[88.818,25.408],[88.846,25.394],[88.848,25.364],[88.884,25.328],[88.902,25.338],[88.937,25.307],[89.005,25.3],[89.013,25.267],[88.958,25.25],[88.964,25.211],[88.92,25.166],[88.848,25.21],[88.809,25.174],[88.689,25.21],[88.619,25.205],[88.568,25.175],[88.487,25.214],[88.467,25.196],[88.444,25.209],[88.462,25.145],[88.438,25.049],[88.451,25.029],[88.413,24.995],[88.398,24.944],[88.347,24.94],[88.333,24.871],[88.281,24.893],[88.266,24.878],[88.265,24.914],[88.231,24.956],[88.142,24.93],[88.177,24.86],[88.146,24.851],[88.14,24.802],[88.128,24.827],[88.108,24.781],[88.072,24.771],[88.068,24.722],[88.014,24.664],[88.133,24.517],[88.204,24.458],[88.274,24.44],[88.343,24.378],[88.446,24.376],[88.528,24.342],[88.556,24.298],[88.579,24.325],[88.606,24.309],[88.704,24.311],[88.74,24.275],[88.734,24.172],[88.749,24.14],[88.699,24.115],[88.704,24.096],[88.729,24.097],[88.726,24.067],[88.741,24.061],[88.727,24.054],[88.743,24.036],[88.731,23.996],[88.763,24.01],[88.775,23.986],[88.739,23.98],[88.735,23.915],[88.706,23.915],[88.662,23.87],[88.58,23.862],[88.606,23.819],[88.563,23.786],[88.583,23.767],[88.565,23.644],[88.596,23.639],[88.585,23.603],[88.649,23.61],[88.663,23.555],[88.746,23.483],[88.802,23.497],[88.794,23.444],[88.769,23.445],[88.761,23.421],[88.766,23.364],[88.737,23.35],[88.749,23.312],[88.701,23.299],[88.724,23.255],[88.8,23.218],[88.817,23.219],[88.821,23.253],[88.856,23.227],[88.917,23.232],[88.922,23.211],[88.998,23.215],[88.985,23.184],[88.965,23.192],[88.924,23.129],[88.873,23.098],[88.877,23.007],[88.85,23.008],[88.871,22.992],[88.865,22.958],[88.898,22.953],[88.917,22.921],[88.912,22.88],[88.949,22.88],[88.971,22.845],[88.961,22.797],[88.922,22.765],[88.924,22.737],[88.962,22.694],[88.932,22.641],[88.957,22.61],[88.938,22.57],[88.869,22.546],[88.843,22.508],[88.865,22.488],[88.853,22.433],[88.825,22.436],[88.812,22.481],[88.772,22.513],[88.784,22.525],[88.766,22.534],[88.766,22.561],[88.764,22.528],[88.783,22.525],[88.768,22.513],[88.691,22.524],[88.674,22.55],[88.678,22.594],[88.672,22.549],[88.691,22.522],[88.778,22.507],[88.803,22.443],[88.848,22.431],[88.846,22.388],[88.876,22.355],[88.82,22.36],[88.871,22.358],[88.911,22.306],[88.935,22.302],[88.93,22.259],[88.954,22.225],[88.902,22.224],[88.888,22.266],[88.844,22.29],[88.887,22.265],[88.919,22.166],[88.872,22.171],[88.884,22.212],[88.841,22.214],[88.876,22.253],[88.839,22.216],[88.883,22.201],[88.854,22.206],[88.844,22.19],[88.834,22.209],[88.82,22.196],[88.807,22.209],[88.801,22.226],[88.83,22.254],[88.812,22.285],[88.826,22.242],[88.798,22.226],[88.835,22.167],[88.748,22.198],[88.752,22.23],[88.79,22.259],[88.744,22.229],[88.734,22.196],[88.639,22.213],[88.685,22.294],[88.691,22.327],[88.666,22.339],[88.679,22.294],[88.631,22.222],[88.672,22.201],[88.619,22.109],[88.599,22.13],[88.605,22.16],[88.573,22.189],[88.603,22.159],[88.598,22.131],[88.637,22.045],[88.603,22.024],[88.597,22.067],[88.6,22.024],[88.614,22.02],[88.599,21.975],[88.607,21.913],[88.578,21.89],[88.586,21.928],[88.573,21.907],[88.55,21.921],[88.544,21.97],[88.568,21.959],[88.546,21.973],[88.549,21.922],[88.571,21.904],[88.541,21.904],[88.548,21.882],[88.528,21.853],[88.494,21.879],[88.526,21.929],[88.494,21.967],[88.519,21.988],[88.543,21.982],[88.555,22.036],[88.541,21.982],[88.518,21.989],[88.492,21.967],[88.522,21.939],[88.521,21.915],[88.474,21.895],[88.456,21.9],[88.453,21.94],[88.47,21.959],[88.446,21.966],[88.461,22.012],[88.442,21.991],[88.445,21.964],[88.469,21.958],[88.451,21.942],[88.458,21.919],[88.409,21.885],[88.385,21.899],[88.408,21.919],[88.399,21.953],[88.374,21.965],[88.394,21.971],[88.376,21.97],[88.406,21.92],[88.383,21.901],[88.397,21.885],[88.391,21.799],[88.364,21.798],[88.355,21.823],[88.371,21.898],[88.35,21.927],[88.369,21.897],[88.354,21.857],[88.309,21.856],[88.31,21.878],[88.262,21.859],[88.27,21.885],[88.255,21.871],[88.314,21.847],[88.259,21.808],[88.282,21.761],[88.252,21.802],[88.283,21.758],[88.266,21.73],[88.274,21.755],[88.217,21.764],[88.163,21.879],[88.177,21.926],[88.154,21.959],[88.208,22.023],[88.224,22.075],[88.203,22.167],[88.166,22.199],[88.07,22.212],[88.105,22.305],[88.089,22.303],[88.049,22.22],[87.985,22.246],[87.959,22.285],[87.946,22.406],[87.923,22.435],[87.883,22.441],[87.93,22.404],[87.942,22.366],[87.94,22.26],[88.009,22.201],[88.136,22.185],[88.189,22.099],[88.062,22.013],[87.992,22.103],[87.959,22.1],[88.008,22.074],[88.052,22.007],[87.972,21.84],[87.815,21.701],[87.68,21.636],[87.469,21.598],[87.41,21.545],[87.384,21.573],[87.338,21.576],[87.397,21.532],[87.205,21.53],[87.07,21.462],[87.053,21.429],[86.951,21.358],[86.843,21.157],[86.875,21.044],[86.979,20.86],[86.974,20.793],[86.892,20.792],[86.88,20.808],[86.794,20.745],[86.822,20.731],[86.863,20.774],[86.985,20.772],[87.007,20.713],[86.903,20.71],[86.969,20.706],[86.966,20.688],[87.057,20.715],[86.77,20.505],[86.755,20.517],[86.75,20.472],[86.726,20.479],[86.733,20.411],[86.712,20.395],[86.727,20.377],[86.739,20.396],[86.746,20.378],[86.777,20.389],[86.784,20.326],[86.538,20.18],[86.407,20.006],[86.382,20.001],[86.375,19.952],[86.246,19.908],[86.228,19.933],[86.232,19.898],[86.212,19.888],[85.696,19.751],[85.337,19.575],[85.127,19.427],[85.09,19.377],[84.915,19.266],[84.825,19.174],[84.769,19.08]]],[[[93.849,7.241],[93.847,7.218],[93.883,7.204],[93.887,7.087],[93.948,7.002],[93.914,7.0],[93.946,6.956],[93.923,6.952],[93.916,6.914],[93.897,6.903],[93.903,6.815],[93.882,6.795],[93.852,6.815],[93.828,6.756],[93.805,6.766],[93.816,6.817],[93.787,6.831],[93.782,6.892],[93.743,6.924],[93.747,6.962],[93.694,7.016],[93.664,7.005],[93.658,7.099],[93.675,7.114],[93.656,7.126],[93.686,7.189],[93.729,7.184],[93.76,7.214],[93.805,7.203],[93.806,7.233],[93.849,7.241]]],[[[93.713,7.444],[93.757,7.358],[93.647,7.244],[93.621,7.309],[93.637,7.321],[93.633,7.371],[93.709,7.394],[93.713,7.444]]],[[[93.383,8.023],[93.409,8.006],[93.398,7.968],[93.432,7.966],[93.463,7.934],[93.475,7.893],[93.462,7.873],[93.425,7.907],[93.358,7.889],[93.343,7.919],[93.357,7.942],[93.32,7.932],[93.311,7.962],[93.329,8.005],[93.383,8.023]]],[[[93.548,8.026],[93.582,7.992],[93.577,7.929],[93.508,7.985],[93.532,8.025],[93.551,7.996],[93.548,8.026]]],[[[93.58,8.124],[93.594,8.039],[93.562,8.118],[93.58,8.124]]],[[[93.526,8.232],[93.545,8.201],[93.503,8.148],[93.548,8.089],[93.55,8.036],[93.531,8.049],[93.508,8.034],[93.501,7.998],[93.486,8.044],[93.509,8.037],[93.504,8.057],[93.512,8.068],[93.526,8.053],[93.531,8.079],[93.514,8.084],[93.486,8.052],[93.49,8.091],[93.466,8.109],[93.454,8.169],[93.494,8.223],[93.526,8.232]]],[[[93.235,8.264],[93.251,8.231],[93.24,8.222],[93.22,8.246],[93.235,8.264]]],[[[93.127,8.356],[93.143,8.343],[93.126,8.276],[93.203,8.217],[93.2,8.196],[93.121,8.224],[93.087,8.271],[93.096,8.339],[93.127,8.356]]],[[[93.614,8.575],[93.642,8.468],[93.627,8.468],[93.623,8.423],[93.614,8.575]]],[[[92.795,9.239],[92.82,9.211],[92.83,9.138],[92.799,9.119],[92.73,9.125],[92.723,9.217],[92.766,9.215],[92.776,9.257],[92.795,9.239]]],[[[92.518,10.897],[92.558,10.863],[92.563,10.804],[92.587,10.788],[92.597,10.68],[92.54,10.615],[92.568,10.576],[92.513,10.512],[92.433,10.548],[92.386,10.532],[92.421,10.616],[92.383,10.668],[92.377,10.783],[92.409,10.784],[92.427,10.823],[92.458,10.839],[92.457,10.862],[92.518,10.897]]],[[[92.642,11.51],[92.669,11.49],[92.686,11.436],[92.649,11.407],[92.694,11.388],[92.691,11.371],[92.598,11.348],[92.582,11.368],[92.587,11.401],[92.623,11.406],[92.614,11.473],[92.642,11.51]]],[[[92.23,11.588],[92.27,11.585],[92.261,11.518],[92.214,11.53],[92.208,11.585],[92.23,11.588]]],[[[92.541,11.603],[92.57,11.588],[92.53,11.555],[92.541,11.603]]],[[[93.032,11.837],[93.072,11.835],[93.05,11.813],[93.015,11.829],[93.013,11.85],[93.032,11.837]]],[[[92.975,12.043],[93.01,12.017],[93.053,11.904],[93.045,11.884],[93.026,11.889],[93.002,11.949],[92.974,11.949],[92.96,11.982],[92.925,11.998],[92.975,12.043]]],[[[92.991,12.109],[93.006,12.1],[92.994,12.044],[92.961,12.079],[92.96,12.108],[92.991,12.109]]],[[[92.964,12.151],[92.992,12.144],[92.998,12.114],[92.963,12.123],[92.964,12.151]]],[[[93.029,12.166],[93.034,12.1],[93.054,12.076],[93.045,12.046],[93.008,12.076],[93.0,12.108],[93.029,12.166]]],[[[93.074,12.21],[93.095,12.142],[93.074,12.084],[93.037,12.133],[93.074,12.21]]],[[[92.697,12.24],[92.704,12.164],[92.721,12.182],[92.758,12.177],[92.735,12.074],[92.783,12.046],[92.762,12.021],[92.738,12.042],[92.736,12.016],[92.769,11.999],[92.743,11.995],[92.749,11.978],[92.728,11.995],[92.714,11.933],[92.725,11.851],[92.707,11.816],[92.678,11.82],[92.693,11.812],[92.681,11.799],[92.719,11.827],[92.746,11.932],[92.784,11.937],[92.788,11.919],[92.755,11.702],[92.743,11.713],[92.739,11.691],[92.702,11.708],[92.709,11.671],[92.665,11.654],[92.675,11.625],[92.688,11.641],[92.696,11.622],[92.695,11.653],[92.712,11.644],[92.73,11.659],[92.722,11.69],[92.757,11.665],[92.712,11.478],[92.7,11.507],[92.667,11.504],[92.646,11.524],[92.647,11.572],[92.618,11.563],[92.609,11.621],[92.636,11.616],[92.645,11.637],[92.632,11.652],[92.632,11.629],[92.608,11.634],[92.589,11.725],[92.562,11.694],[92.547,11.835],[92.522,11.827],[92.514,11.849],[92.563,11.947],[92.587,11.887],[92.602,11.897],[92.606,11.858],[92.623,12.096],[92.662,12.216],[92.655,12.182],[92.697,12.24]]],[[[92.731,12.242],[92.733,12.211],[92.74,12.236],[92.763,12.23],[92.764,12.182],[92.721,12.191],[92.731,12.242]]],[[[92.901,12.255],[92.912,12.222],[92.891,12.234],[92.878,12.21],[92.871,12.246],[92.901,12.255]]],[[[93.079,12.26],[93.088,12.237],[93.106,12.26],[93.101,12.204],[93.093,12.225],[93.063,12.23],[93.079,12.26]]],[[[93.867,12.295],[93.876,12.273],[93.855,12.266],[93.849,12.289],[93.867,12.295]]],[[[92.713,12.297],[92.711,12.23],[92.7,12.276],[92.713,12.297]]],[[[92.934,12.308],[92.942,12.276],[92.923,12.231],[92.902,12.288],[92.928,12.281],[92.934,12.308]]],[[[92.826,12.304],[92.867,12.306],[92.887,12.287],[92.888,12.259],[92.859,12.245],[92.882,12.198],[92.846,12.2],[92.851,12.157],[92.823,12.166],[92.803,12.13],[92.813,12.108],[92.788,12.103],[92.793,12.081],[92.765,12.064],[92.739,12.099],[92.771,12.231],[92.743,12.251],[92.751,12.275],[92.765,12.264],[92.782,12.285],[92.771,12.313],[92.826,12.304]]],[[[92.86,12.407],[92.889,12.407],[92.884,12.375],[92.844,12.395],[92.86,12.407]]],[[[92.956,12.43],[92.931,12.359],[92.917,12.369],[92.926,12.405],[92.956,12.43]]],[[[92.71,12.829],[92.718,12.719],[92.695,12.796],[92.71,12.829]]],[[[92.899,12.916],[92.922,12.913],[92.904,12.886],[92.928,12.884],[92.954,12.807],[92.934,12.774],[92.98,12.71],[92.965,12.705],[92.949,12.629],[92.976,12.543],[92.968,12.497],[92.93,12.48],[92.923,12.465],[92.959,12.473],[92.915,12.444],[92.915,12.406],[92.856,12.457],[92.899,12.416],[92.808,12.437],[92.896,12.337],[92.868,12.332],[92.895,12.32],[92.832,12.303],[92.771,12.32],[92.755,12.296],[92.72,12.3],[92.699,12.328],[92.708,12.595],[92.685,12.609],[92.704,12.607],[92.715,12.643],[92.724,12.626],[92.752,12.671],[92.775,12.67],[92.781,12.635],[92.789,12.675],[92.786,12.698],[92.768,12.672],[92.733,12.674],[92.746,12.723],[92.724,12.827],[92.738,12.811],[92.74,12.837],[92.743,12.824],[92.76,12.859],[92.77,12.846],[92.77,12.864],[92.794,12.863],[92.803,12.897],[92.859,12.878],[92.899,12.916]]],[[[92.696,12.992],[92.72,12.979],[92.72,12.874],[92.7,12.84],[92.676,12.836],[92.689,12.817],[92.668,12.783],[92.648,12.862],[92.68,12.943],[92.669,12.963],[92.696,12.992]]],[[[93.006,12.997],[92.98,12.967],[92.981,12.933],[92.952,12.941],[92.974,12.946],[92.954,12.963],[92.959,12.989],[92.972,12.97],[93.006,12.997]]],[[[92.927,13.024],[92.94,13.025],[92.942,12.996],[92.921,13.001],[92.927,13.024]]],[[[94.271,13.443],[94.246,13.443],[94.26,13.467],[94.276,13.469],[94.271,13.443]]],[[[93.03,13.571],[93.043,13.505],[93.033,13.466],[93.016,13.465],[93.035,13.436],[93.016,13.433],[93.07,13.406],[93.048,13.375],[93.025,13.373],[93.056,13.382],[93.09,13.336],[93.065,13.304],[93.061,13.329],[93.04,13.322],[93.042,13.368],[93.032,13.345],[93.003,13.354],[92.987,13.329],[92.971,13.36],[92.95,13.344],[92.998,13.315],[92.992,13.292],[93.009,13.321],[93.012,13.277],[93.046,13.282],[93.045,13.259],[93.066,13.272],[93.032,13.179],[93.035,13.083],[93.003,13.029],[92.965,13.037],[92.972,13.013],[92.935,13.043],[92.936,13.087],[92.924,13.057],[92.904,13.08],[92.911,13.061],[92.888,13.045],[92.916,13.055],[92.902,13.022],[92.939,12.972],[92.913,12.947],[92.907,12.986],[92.881,12.982],[92.877,12.944],[92.855,12.94],[92.873,12.883],[92.842,12.877],[92.842,12.892],[92.794,12.914],[92.795,12.987],[92.818,12.986],[92.808,12.998],[92.825,13.013],[92.788,13.02],[92.797,13.09],[92.81,13.074],[92.807,13.1],[92.822,13.096],[92.81,13.127],[92.848,13.141],[92.81,13.153],[92.815,13.175],[92.835,13.174],[92.819,13.184],[92.828,13.237],[92.854,13.236],[92.851,13.263],[92.822,13.279],[92.842,13.301],[92.822,13.311],[92.84,13.375],[92.867,13.382],[92.842,13.4],[92.868,13.403],[92.884,13.43],[92.872,13.472],[92.93,13.502],[92.915,13.534],[92.954,13.544],[92.99,13.527],[92.988,13.573],[93.01,13.542],[93.03,13.571]]],[[[93.017,13.675],[93.026,13.627],[92.977,13.655],[93.017,13.675]]],[[[81.394,16.334],[81.271,16.279],[81.277,16.316],[81.33,16.32],[81.312,16.308],[81.394,16.334]]],[[[70.925,20.738],[70.998,20.714],[70.914,20.699],[70.873,20.71],[70.882,20.729],[70.925,20.738]]],[[[72.677,21.156],[72.71,21.141],[72.689,21.09],[72.665,21.142],[72.677,21.156]]],[[[72.723,21.666],[72.751,21.653],[72.717,21.645],[72.723,21.666]]],[[[69.628,22.459],[69.657,22.428],[69.637,22.407],[69.588,22.437],[69.628,22.459]]],[[[69.137,22.478],[69.147,22.463],[69.111,22.464],[69.085,22.421],[69.093,22.462],[69.137,22.478]]],[[[69.325,22.527],[69.364,22.512],[69.335,22.507],[69.325,22.527]]],[[[69.919,22.553],[69.942,22.518],[69.862,22.527],[69.895,22.523],[69.919,22.553]]],[[[70.009,22.593],[70.027,22.568],[69.958,22.55],[69.965,22.578],[70.009,22.593]]],[[[70.448,23.052],[70.414,22.99],[70.415,23.019],[70.448,23.052]]],[[[68.558,23.314],[68.574,23.294],[68.588,23.295],[68.582,23.31],[68.612,23.297],[68.615,23.272],[68.572,23.261],[68.574,23.245],[68.541,23.266],[68.541,23.285],[68.568,23.281],[68.558,23.314]]],[[[68.506,23.342],[68.538,23.318],[68.502,23.324],[68.506,23.342]]],[[[68.589,23.374],[68.618,23.354],[68.617,23.328],[68.568,23.372],[68.589,23.374]]],[[[68.473,23.48],[68.495,23.456],[68.485,23.403],[68.458,23.418],[68.475,23.46],[68.43,23.431],[68.418,23.44],[68.421,23.42],[68.412,23.443],[68.435,23.44],[68.473,23.48]]],[[[68.482,23.597],[68.481,23.561],[68.43,23.508],[68.435,23.557],[68.482,23.597]]],[[[68.456,23.625],[68.467,23.601],[68.44,23.587],[68.435,23.616],[68.456,23.625]]],[[[68.358,23.805],[68.398,23.785],[68.426,23.795],[68.399,23.751],[68.417,23.76],[68.418,23.724],[68.39,23.654],[68.375,23.643],[68.39,23.686],[68.347,23.598],[68.315,23.583],[68.274,23.592],[68.293,23.6],[68.278,23.631],[68.307,23.631],[68.277,23.633],[68.264,23.602],[68.242,23.606],[68.25,23.591],[68.221,23.59],[68.226,23.607],[68.197,23.597],[68.186,23.624],[68.205,23.648],[68.312,23.65],[68.231,23.643],[68.27,23.65],[68.318,23.718],[68.334,23.711],[68.358,23.805]]],[[[68.308,23.824],[68.324,23.734],[68.291,23.728],[68.286,23.755],[68.295,23.723],[68.274,23.701],[68.257,23.716],[68.268,23.772],[68.308,23.824]]],[[[68.498,23.831],[68.52,23.818],[68.512,23.789],[68.498,23.795],[68.522,23.775],[68.517,23.755],[68.49,23.76],[68.507,23.748],[68.488,23.737],[68.465,23.775],[68.477,23.741],[68.437,23.739],[68.457,23.774],[68.448,23.807],[68.498,23.831]]],[[[68.396,23.878],[68.439,23.839],[68.427,23.81],[68.412,23.821],[68.405,23.793],[68.38,23.838],[68.402,23.79],[68.355,23.811],[68.33,23.787],[68.344,23.839],[68.396,23.878]]],[[[68.248,23.88],[68.234,23.843],[68.216,23.848],[68.216,23.867],[68.248,23.88]]],[[[68.449,23.938],[68.442,23.87],[68.42,23.871],[68.422,23.895],[68.417,23.872],[68.377,23.877],[68.35,23.846],[68.368,23.891],[68.353,23.884],[68.353,23.901],[68.449,23.938]]],[[[68.535,23.946],[68.589,23.917],[68.517,23.857],[68.502,23.875],[68.491,23.866],[68.486,23.89],[68.526,23.893],[68.514,23.905],[68.538,23.918],[68.535,23.946]]],[[[68.498,23.967],[68.518,23.924],[68.467,23.895],[68.472,23.862],[68.432,23.852],[68.463,23.932],[68.428,23.937],[68.437,23.957],[68.498,23.967]]],[[[68.358,23.975],[68.434,23.966],[68.412,23.926],[68.347,23.904],[68.338,23.819],[68.321,23.807],[68.304,23.825],[68.266,23.793],[68.254,23.719],[68.267,23.692],[68.238,23.681],[68.193,23.731],[68.234,23.775],[68.218,23.781],[68.213,23.835],[68.245,23.854],[68.26,23.825],[68.287,23.839],[68.25,23.849],[68.258,23.871],[68.305,23.866],[68.318,23.88],[68.302,23.867],[68.261,23.887],[68.283,23.92],[68.338,23.92],[68.358,23.975]]],[[[74.101,11.204],[74.056,11.211],[74.001,11.25],[73.965,11.306],[73.973,11.344],[74.012,11.349],[74.09,11.298],[74.123,11.239],[74.101,11.204]]],[[[71.845,11.835],[71.84,11.821],[71.784,11.834],[71.761,11.872],[71.731,11.954],[71.773,12.004],[71.795,11.987],[71.845,11.835]]],[[[72.265,10.011],[72.236,10.015],[72.244,10.054],[72.33,10.139],[72.334,10.079],[72.306,10.034],[72.265,10.011]]],[[[72.179,11.491],[72.149,11.501],[72.137,11.543],[72.174,11.607],[72.195,11.588],[72.197,11.499],[72.179,11.491]]],[[[72.096,11.192],[72.08,11.136],[72.055,11.121],[72.001,11.194],[72.067,11.193],[72.1,11.222],[72.096,11.192]]],[[[71.901,12.285],[71.88,12.389],[71.897,12.403],[71.927,12.374],[71.901,12.285]]],[[[73.063,8.329],[73.085,8.327],[73.069,8.282],[73.047,8.261],[73.01,8.27],[73.01,8.303],[73.063,8.329]]],[[[73.646,10.053],[73.62,10.102],[73.66,10.155],[73.646,10.053]]],[[[72.647,10.578],[72.651,10.562],[72.617,10.539],[72.647,10.578]]],[[[79.327,9.297],[79.316,9.279],[79.336,9.249],[79.424,9.167],[79.326,9.234],[79.262,9.261],[79.22,9.258],[79.206,9.278],[79.317,9.325],[79.327,9.297]]],[[[88.498,21.6],[88.534,21.578],[88.531,21.542],[88.506,21.541],[88.503,21.565],[88.504,21.544],[88.482,21.555],[88.498,21.6]]],[[[88.835,21.607],[88.876,21.592],[88.904,21.556],[88.843,21.554],[88.835,21.607]]],[[[88.729,21.637],[88.757,21.599],[88.736,21.572],[88.707,21.594],[88.729,21.637]]],[[[88.537,21.639],[88.588,21.602],[88.55,21.564],[88.537,21.587],[88.557,21.604],[88.537,21.588],[88.51,21.602],[88.524,21.653],[88.537,21.639]]],[[[88.774,21.648],[88.782,21.596],[88.798,21.592],[88.752,21.577],[88.758,21.6],[88.73,21.64],[88.774,21.648]]],[[[88.966,21.642],[88.991,21.644],[88.993,21.617],[88.956,21.618],[88.94,21.647],[88.955,21.677],[88.966,21.642]]],[[[88.577,21.692],[88.602,21.621],[88.554,21.64],[88.577,21.692]]],[[[88.984,21.706],[88.988,21.653],[89.023,21.654],[89.029,21.605],[89.0,21.602],[88.992,21.644],[88.964,21.646],[88.951,21.701],[88.984,21.706]]],[[[88.807,21.707],[88.797,21.655],[88.731,21.685],[88.807,21.707]]],[[[88.311,21.706],[88.346,21.689],[88.358,21.648],[88.315,21.608],[88.311,21.706]]],[[[88.454,21.709],[88.471,21.673],[88.442,21.615],[88.419,21.683],[88.454,21.709]]],[[[88.697,21.713],[88.707,21.681],[88.751,21.649],[88.723,21.639],[88.687,21.683],[88.697,21.713]]],[[[88.205,21.721],[88.217,21.701],[88.196,21.682],[88.226,21.67],[88.232,21.644],[88.212,21.602],[88.181,21.686],[88.205,21.721]]],[[[89.059,21.722],[89.095,21.644],[89.052,21.618],[89.028,21.635],[89.01,21.705],[89.059,21.722]]],[[[88.978,21.727],[89.021,21.714],[89.008,21.652],[88.99,21.654],[88.978,21.727]]],[[[88.546,21.736],[88.571,21.733],[88.591,21.691],[88.543,21.724],[88.574,21.694],[88.553,21.703],[88.569,21.669],[88.551,21.636],[88.53,21.653],[88.517,21.711],[88.546,21.736]]],[[[88.883,21.745],[88.94,21.695],[88.921,21.632],[88.873,21.694],[88.883,21.745]]],[[[88.412,21.731],[88.429,21.702],[88.411,21.659],[88.432,21.627],[88.399,21.596],[88.38,21.681],[88.404,21.715],[88.369,21.727],[88.395,21.755],[88.412,21.731]]],[[[88.221,21.762],[88.272,21.754],[88.262,21.73],[88.31,21.676],[88.288,21.623],[88.306,21.583],[88.292,21.563],[88.248,21.564],[88.243,21.597],[88.216,21.616],[88.233,21.668],[88.198,21.689],[88.22,21.7],[88.221,21.762]]],[[[88.927,21.762],[88.987,21.745],[88.969,21.723],[88.983,21.706],[88.923,21.72],[88.927,21.762]]],[[[88.365,21.764],[88.365,21.722],[88.398,21.713],[88.361,21.686],[88.338,21.711],[88.343,21.754],[88.365,21.764]]],[[[89.005,21.765],[89.059,21.726],[89.017,21.718],[89.005,21.765]]],[[[88.832,21.766],[88.865,21.759],[88.839,21.707],[88.86,21.637],[88.844,21.627],[88.829,21.651],[88.846,21.62],[88.809,21.639],[88.815,21.71],[88.763,21.701],[88.791,21.749],[88.832,21.766]]],[[[88.385,21.764],[88.387,21.741],[88.362,21.732],[88.385,21.764]]],[[[88.582,21.778],[88.616,21.728],[88.58,21.726],[88.569,21.769],[88.582,21.778]]],[[[88.302,21.725],[88.297,21.706],[88.278,21.728],[88.289,21.778],[88.302,21.725]]],[[[89.0,21.785],[89.004,21.716],[88.977,21.729],[88.988,21.747],[88.951,21.758],[89.0,21.785]]],[[[88.61,21.79],[88.631,21.743],[88.609,21.708],[88.599,21.716],[88.623,21.737],[88.586,21.757],[88.61,21.79]]],[[[88.459,21.789],[88.475,21.791],[88.467,21.737],[88.433,21.704],[88.423,21.768],[88.446,21.798],[88.459,21.789]]],[[[88.716,21.807],[88.759,21.759],[88.753,21.732],[88.777,21.721],[88.748,21.707],[88.736,21.719],[88.763,21.693],[88.729,21.687],[88.748,21.658],[88.711,21.69],[88.695,21.744],[88.716,21.807]]],[[[88.545,21.81],[88.572,21.788],[88.573,21.736],[88.519,21.719],[88.504,21.757],[88.535,21.792],[88.504,21.771],[88.545,21.81]]],[[[88.422,21.811],[88.443,21.8],[88.421,21.767],[88.423,21.72],[88.383,21.779],[88.422,21.811]]],[[[89.0,21.812],[89.016,21.812],[89.024,21.759],[88.999,21.767],[89.013,21.78],[88.99,21.79],[89.0,21.812]]],[[[88.751,21.795],[88.746,21.772],[88.728,21.78],[88.751,21.814],[88.751,21.795]]],[[[88.828,21.804],[88.83,21.767],[88.791,21.75],[88.784,21.766],[88.822,21.823],[88.828,21.804]]],[[[88.787,21.745],[88.757,21.733],[88.764,21.761],[88.75,21.77],[88.782,21.825],[88.787,21.745]]],[[[88.916,21.826],[88.937,21.817],[88.898,21.752],[88.907,21.794],[88.883,21.808],[88.916,21.826]]],[[[88.485,21.835],[88.496,21.808],[88.453,21.806],[88.485,21.835]]],[[[88.941,21.847],[88.977,21.821],[88.94,21.793],[88.959,21.771],[88.914,21.756],[88.939,21.817],[88.924,21.836],[88.941,21.847]]],[[[88.592,21.85],[88.618,21.829],[88.614,21.798],[88.576,21.817],[88.592,21.85]]],[[[88.331,21.861],[88.353,21.854],[88.361,21.797],[88.38,21.787],[88.377,21.768],[88.343,21.76],[88.345,21.722],[88.317,21.709],[88.298,21.777],[88.311,21.796],[88.294,21.803],[88.31,21.793],[88.296,21.774],[88.26,21.804],[88.331,21.861]]],[[[88.856,21.865],[88.877,21.852],[88.891,21.754],[88.921,21.744],[88.913,21.728],[88.864,21.779],[88.835,21.782],[88.837,21.843],[88.856,21.865]]],[[[88.137,21.875],[88.173,21.812],[88.171,21.742],[88.143,21.68],[88.155,21.65],[88.109,21.626],[88.042,21.649],[88.037,21.675],[88.073,21.78],[88.137,21.875]]],[[[88.789,21.879],[88.788,21.864],[88.801,21.878],[88.83,21.862],[88.795,21.791],[88.79,21.821],[88.766,21.829],[88.789,21.879]]],[[[88.979,21.893],[89.029,21.866],[89.025,21.849],[88.989,21.868],[89.03,21.835],[88.97,21.775],[88.943,21.787],[88.977,21.805],[88.978,21.824],[88.95,21.838],[88.979,21.867],[88.979,21.893]]],[[[88.622,21.898],[88.633,21.87],[88.654,21.868],[88.639,21.785],[88.595,21.854],[88.622,21.898]]],[[[88.817,21.901],[88.841,21.887],[88.829,21.865],[88.8,21.871],[88.817,21.901]]],[[[88.562,21.897],[88.573,21.858],[88.551,21.817],[88.531,21.849],[88.55,21.881],[88.541,21.903],[88.562,21.897]]],[[[88.446,21.905],[88.482,21.888],[88.49,21.856],[88.488,21.838],[88.448,21.815],[88.461,21.79],[88.424,21.812],[88.402,21.798],[88.393,21.833],[88.419,21.902],[88.446,21.905]]],[[[88.718,21.907],[88.781,21.859],[88.758,21.781],[88.752,21.815],[88.726,21.794],[88.707,21.811],[88.705,21.828],[88.728,21.837],[88.702,21.824],[88.697,21.838],[88.717,21.856],[88.697,21.849],[88.718,21.907]]],[[[88.64,21.922],[88.668,21.912],[88.653,21.873],[88.634,21.871],[88.623,21.901],[88.64,21.922]]],[[[88.837,21.918],[88.915,21.928],[88.974,21.898],[88.977,21.868],[88.956,21.854],[88.943,21.885],[88.957,21.87],[88.947,21.841],[88.907,21.879],[88.939,21.85],[88.888,21.812],[88.878,21.854],[88.857,21.859],[88.82,21.928],[88.837,21.918]]],[[[88.724,21.932],[88.799,21.92],[88.808,21.884],[88.776,21.87],[88.719,21.909],[88.724,21.932]]],[[[88.745,21.98],[88.751,21.955],[88.786,21.953],[88.799,21.926],[88.733,21.925],[88.724,21.974],[88.745,21.98]]],[[[88.66,22.019],[88.716,22.001],[88.693,21.97],[88.687,21.991],[88.695,21.961],[88.668,21.953],[88.688,21.953],[88.678,21.943],[88.629,21.958],[88.66,22.019]]],[[[88.141,22.026],[88.088,21.933],[88.047,21.912],[88.073,21.995],[88.141,22.026]]],[[[88.813,22.019],[88.902,22.012],[88.907,21.93],[88.857,21.919],[88.753,21.956],[88.753,21.985],[88.8,21.97],[88.754,21.988],[88.762,22.015],[88.813,22.019]]],[[[88.764,22.052],[88.791,22.029],[88.762,22.021],[88.751,22.05],[88.764,22.052]]],[[[88.903,22.045],[88.892,22.015],[88.852,22.041],[88.89,22.046],[88.886,22.058],[88.903,22.045]]],[[[89.016,22.051],[89.041,22.049],[89.074,22.004],[89.06,21.932],[89.041,21.951],[89.049,21.93],[89.031,21.926],[89.0,21.949],[89.018,21.976],[89.005,21.986],[89.033,22.002],[88.992,21.974],[88.976,21.991],[88.999,22.007],[88.974,21.994],[88.985,22.055],[89.016,22.051]]],[[[88.812,22.061],[88.832,22.027],[88.78,22.038],[88.788,22.06],[88.812,22.061]]],[[[88.871,22.079],[88.89,22.048],[88.836,22.025],[88.846,22.062],[88.82,22.064],[88.871,22.079]]],[[[88.904,22.084],[88.891,22.06],[88.871,22.064],[88.87,22.087],[88.904,22.084]]],[[[88.803,22.085],[88.828,22.086],[88.836,22.066],[88.794,22.056],[88.787,22.072],[88.781,22.048],[88.748,22.057],[88.784,22.107],[88.799,22.108],[88.803,22.085]]],[[[88.818,22.123],[88.846,22.119],[88.868,22.085],[88.838,22.09],[88.868,22.083],[88.838,22.073],[88.819,22.104],[88.825,22.087],[88.806,22.085],[88.799,22.111],[88.818,22.123]]],[[[88.865,22.167],[88.9,22.148],[88.916,22.09],[88.896,22.091],[88.892,22.114],[88.895,22.091],[88.872,22.088],[88.831,22.127],[88.86,22.142],[88.849,22.169],[88.865,22.167]]],[[[88.95,22.189],[88.98,22.133],[88.953,22.158],[88.985,22.127],[88.969,22.083],[88.951,22.104],[88.967,22.079],[88.925,22.065],[88.924,22.024],[88.946,22.0],[88.935,22.055],[88.964,22.057],[88.972,21.988],[88.992,21.97],[89.014,21.979],[88.991,21.952],[89.021,21.922],[89.013,21.902],[88.969,21.921],[88.976,21.946],[88.966,21.923],[88.936,21.936],[88.913,21.994],[88.901,22.065],[88.94,22.128],[88.936,22.143],[88.938,22.127],[88.913,22.13],[88.894,22.17],[88.92,22.161],[88.95,22.189]]],[[[89.002,22.199],[89.022,22.149],[89.05,22.131],[89.015,22.114],[89.036,22.109],[89.038,22.053],[89.023,22.079],[89.026,22.053],[88.985,22.057],[88.978,22.04],[88.962,22.06],[88.997,22.138],[88.973,22.193],[89.002,22.199]]],[[[88.695,22.209],[88.789,22.169],[88.683,22.081],[88.736,22.032],[88.721,22.005],[88.664,22.024],[88.634,22.106],[88.653,22.163],[88.695,22.209]]],[[[88.845,22.189],[88.86,22.203],[88.868,22.171],[88.843,22.167],[88.856,22.144],[88.778,22.111],[88.739,22.057],[88.705,22.065],[88.749,22.135],[88.809,22.179],[88.838,22.167],[88.828,22.208],[88.845,22.189]]],[[[88.932,22.225],[88.954,22.222],[88.962,22.197],[88.931,22.177],[88.908,22.196],[88.919,22.231],[88.932,22.225]]],[[[88.985,22.382],[88.984,22.325],[89.023,22.297],[88.994,22.286],[89.067,22.198],[89.069,22.147],[89.096,22.155],[89.062,22.128],[89.023,22.166],[89.02,22.206],[88.973,22.21],[88.947,22.256],[88.967,22.408],[88.985,22.382]]],[[[88.862,22.399],[88.866,22.386],[88.881,22.403],[88.899,22.337],[88.861,22.371],[88.862,22.399]]],[[[88.781,22.501],[88.835,22.434],[88.804,22.444],[88.781,22.501]]],[[[88.898,22.549],[88.892,22.465],[88.922,22.401],[88.888,22.378],[88.898,22.367],[88.856,22.423],[88.868,22.488],[88.844,22.507],[88.898,22.549]]],[[[88.92,22.565],[88.96,22.549],[88.999,22.43],[88.964,22.409],[88.958,22.365],[88.939,22.419],[88.953,22.366],[88.942,22.31],[88.907,22.336],[88.896,22.38],[88.93,22.39],[88.895,22.466],[88.914,22.511],[88.895,22.56],[88.92,22.565]]],[[[89.602,25.961],[89.613,25.943],[89.584,25.935],[89.576,25.951],[89.602,25.961]]],[[[88.799,26.207],[88.789,26.131],[88.771,26.131],[88.763,26.152],[88.778,26.163],[88.763,26.172],[88.782,26.195],[88.768,26.234],[88.796,26.229],[88.799,26.207]]],[[[88.69,26.247],[88.7,26.225],[88.722,26.233],[88.72,26.176],[88.671,26.251],[88.69,26.247]]],[[[86.795,20.396],[86.8,20.491],[86.812,20.445],[86.795,20.396]]]]}}]}